ORBCOMM FM115           
1 41186U 15081H   25172.96877452  .00000426  00000+0  11752-3 0  9990
2 41186  46.9998  16.8154 0000264  81.7145 278.3772 14.62509477508475
ORBCOMM FM108           
1 41187U 15081J   25173.17232077  .00000484  00000+0  14053-3 0  9994
2 41187  47.0054  83.4280 0003054 329.2685  30.8022 14.58153094507608
ORBCOMM FM117           
1 41188U 15081K   25172.72750566  .00000457  00000+0  13481-3 0  9997
2 41188  47.0016  84.2897 0003573 337.4263  22.6464 14.58157265507501
ORBCOMM FM116           
1 41189U 15081L   25172.30490029  .00000161  00000+0  71060-4 0  9997
2 41189  47.0004 176.1320 0002149 205.1375 154.9406 14.58178925506256
